131P/Mueller,e,7.3568,214.1517,179.0245,3.680191,0.1396042,0.34412628,137.8534,10/08.0/2021,2000,g 11.0,4.0
# From MPEC 2021-TD0
132P/Helin-Roman-Alu,e,5.3826,173.9967,216.3459,3.886372,0.1286434,0.56469015,355.3550,10/08.0/2021,2000,g 11.0,6.0
# From MPC 94676
133P/Elst-Pizarro,e,1.3893,160.1026,131.8678,3.165020,0.1750409,0.15682242,194.6613,10/08.0/2021,2000,g 15.4,2.0
# From MPC 89012
134P/Kowal-Vavrova,e,4.3381,202.0669,18.8885,6.261481,0.0629055,0.58573445,169.8594,10/08.0/2021,2000,g 11.5,4.0
# From MPEC 2021-F20
135P/Shoemaker-Levy,e,6.0625,213.0251,22.3164,3.802241,0.1329366,0.29513092,335.8963,10/08.0/2021,2000,g  7.0,8.0
# From MPEC 2020-W26
136P/Mueller,e,9.4244,137.4489,224.9324,4.192496,0.1148141,0.29299187,224.2676,10/08.0/2021,2000,g 11.0,4.0
# From MPEC 2021-N06
137P/Shoemaker-Levy,e,4.8544,233.0131,141.0536,4.520643,0.1025425,0.57365291,105.5220,10/08.0/2021,2000,g 11.0,4.0
# From MPEC 2016-U66
138P/Shoemaker-Levy,e,10.0907,309.3269,95.5376,3.621689,0.1430004,0.53071289,127.1235,10/08.0/2021,2000,g 15.0,6.0
# From MPEC 2020-HN5
139P/Vaisala-Oterma,e,2.3345,242.1627,165.7112,4.521613,0.1025095,0.24704263,143.3217,10/08.0/2021,2000,g  9.5,4.0
# From MPEC 2015-E14
140P/Bowell-Skiff,e,3.8368,343.2618,172.8463,6.426958,0.0604917,0.69175435,136.4850,10/08.0/2021,2000,g 11.5,6.0
# From MPEC 2021-AJ0
141P/Machholz,e,13.9456,241.8362,153.5540,3.057348,0.1843685,0.73579916,54.5175,10/08.0/2021,2000,g 14.7,4.0
# From MPEC 2021-TD0
142P/Ge-Wang,e,12.2510,175.9323,173.9522,4.999686,0.0881637,0.49737517,13.0825,10/08.0/2021,2000,g  8.5,6.0
# From MPEC 2021-TD0
143P/Kowal-Mrkos,e,4.6992,245.1963,320.3677,4.280820,0.1112791,0.41096225,139.3108,10/08.0/2021,2000,g 13.5,2.0
# From MPC104795
144P/Kushida,e,3.9358,243.1901,216.3085,3.821555,0.1319301,0.63575189,249.2237,10/08.0/2021,2000,g  8.5,8.0
# From MPC108598
145P/Shoemaker-Levy,e,11.2752,26.7894,10.2394,4.137932,0.1170925,0.54167358,175.3262,10/08.0/2021,2000,g 13.5,4.0
# From MPC100284
146P/Shoemaker-LINEAR,e,23.1016,53.3901,316.9610,4.031705,0.1217505,0.64718378,234.2952,10/08.0/2021,2000,g 15.0,4.0
# From MPC 75720
147P/Kushida-Muramatsu,e,2.3237,92.7705,349.1175,4.012941,0.1226055,0.22573925,262.9961,10/08.0/2021,2000,g 14.0,4.0
# From MPEC 2021-TD0
148P/Anderson-LINEAR,e,3.6579,89.2213,7.9758,3.619800,0.1431124,0.54993156,324.4208,10/08.0/2021,2000,g 16.0,2.0
# From MPC 75720
149P/Mueller,e,35.3930,144.4068,31.9351,4.131235,0.1173773,0.32848018,133.0210,10/08.0/2021,2000,g  8.0,8.0
# From MPEC 2021-TD0
150P/LONEOS,e,18.5056,272.3527,245.5787,3.879327,0.1289940,0.54738072,245.5288,10/08.0/2021,2000,g 13.5,4.0
# From MPEC 2015-Q71
151P/Helin,e,4.7288,143.1586,216.0554,5.763229,0.0712369,0.57365634,155.9136,10/08.0/2021,2000,g 10.0,6.0
# From MPEC 2021-F20
152P/Helin-Lawrence,e,9.8802,91.8593,163.9316,4.477053,0.1040437,0.30870793,349.8425,10/08.0/2021,2000,g 12.6,4.0
# From MPC 46101
153P/Ikeya-Zhang,e,27.8715,93.2039,35.0343,50.57657,0.0027402,0.98963071,0.0000,03/04.8197/2002,2000,g  9.0,4.0
# From MPC 87068
154P/Brewington,e,17.6332,343.0413,47.8433,4.802338,0.0936537,0.67581635,268.2294,10/08.0/2021,2000,g  2.5,12.0
# From MPEC 2021-F20
155P/Shoemaker,e,6.3968,97.1893,14.6072,6.575818,0.0584493,0.72619332,40.5129,10/08.0/2021,2000,g 13.8,4.0
# From MPEC 2021-O56
156P/Russell-LINEAR,e,17.2631,35.3584,0.4430,3.461185,0.1530618,0.61489802,49.6068,10/08.0/2021,2000,g 15.5,2.0
# From MPEC 2021-S45
157P/Tritton,e,12.4362,287.6277,154.9383,3.550004,0.1473536,0.55728031,310.3981,10/08.0/2021,2000,g 10.0,4.0
# From MPEC 2021-TD0
158P/Kowal-LINEAR,e,7.9994,135.5169,173.0867,5.043252,0.0870238,0.04839526,12.1820,10/08.0/2021,2000,g  9.0,4.0
# From MPEC 2021-N06
159P/LONEOS,e,23.4686,54.9723,4.5598,5.853523,0.0695950,0.38189748,85.9456,10/08.0/2021,2000,g 10.0,4.0
# From MPEC 2021-J28
160P/LINEAR,e,15.6174,333.3586,12.7212,3.774868,0.1343852,0.52633236,90.7797,10/08.0/2021,2000,g 15.5,2.0
# From MPC 75721
161P/Hartley-IRAS,e,95.7924,1.5615,46.9631,7.723544,0.0459176,0.83489355,273.7765,10/08.0/2021,2000,g  8.5,6.0
# From MPEC 2021-S45
162P/SidingSpring,e,27.5555,30.9021,357.1506,3.091337,0.1813363,0.58299137,55.1541,10/08.0/2021,2000,g 12.0,4.0
# From MPEC 2021-S45
163P/NEAT,e,12.7092,102.0827,349.5925,3.766988,0.1348071,0.45193789,107.1688,10/08.0/2021,2000,g 14.5,4.0
# From MPEC 2021-F20
164P/Christensen,e,16.2580,88.2849,325.8334,3.656261,0.1409770,0.54023998,172.7624,10/08.0/2021,2000,g 11.0,4.0
# From MPC 75721
165P/LINEAR,e,15.8952,0.8540,125.9682,17.87217,0.0130448,0.61510292,101.9751,10/08.0/2021,2000,g 11.5,2.0
# From MPC 75722
166P/NEAT,e,15.3720,64.4257,321.4737,13.81700,0.0191904,0.38380312,135.8994,10/08.0/2021,2000,g  5.5,4.0
# From MPC 75722
167P/CINEOS,e,19.1180,295.6708,344.5943,16.22277,0.0150840,0.27174144,112.4312,10/08.0/2021,2000,g  9.5,2.0
# From MPC102101
168P/Hergenrother,e,21.6231,355.4519,15.0003,3.582280,0.1453667,0.62102306,115.5007,10/08.0/2021,2000,g 15.5,4.0
# From MPEC 2021-N06
169P/NEAT,e,11.2989,176.1082,218.0479,2.601354,0.2349119,0.76824787,295.4701,10/08.0/2021,2000,g 16.0,2.0
# From MPEC 2021-O56
170P/Christensen,e,10.1250,142.9226,225.6314,4.199255,0.1145370,0.30387789,295.8406,10/08.0/2021,2000,g 12.0,4.0
# From MPC102102
171P/Spahr,e,21.9356,101.6934,347.0677,3.555059,0.1470394,0.50164044,146.8575,10/08.0/2021,2000,g 13.5,4.0
# From MPEC 2021-BE3
172P/Yeung,e,11.2273,30.8878,209.4079,4.213743,0.1139468,0.20524708,190.3773,10/08.0/2021,2000,g 13.0,4.0
# From MPEC 2021-S45
173P/Mueller,e,16.4936,100.4018,29.1935,5.705615,0.0723187,0.26089682,354.9500,10/08.0/2021,2000,g  7.5,4.0
# From MPC 92985
174P/Echeclus,e,4.3435,173.2088,163.1528,10.72381,0.0280660,0.45744605,66.1607,10/08.0/2021,2000,g  9.4,2.0
# From MPC114608
175P/Hergenrother,e,5.9852,123.1718,58.1100,3.469887,0.1524864,0.43558293,111.3911,10/08.0/2021,2000,g 14.0,4.0
# From MPC 89015
176P/LINEAR,e,0.2347,345.9462,34.8575,3.195154,0.1725704,0.19311091,289.0716,10/08.0/2021,2000,g 15.1,2.0
# From MPEC 2020-L06
177P/Barnard,e,31.2524,272.1942,60.2975,24.43645,0.0081592,0.95533446,44.9821,10/08.0/2021,2000,g 15.0,4.0
# From MPEC 2021-F20
178P/Hug-Bell,e,11.0883,102.8698,297.7938,3.632128,0.1423844,0.48213491,63.8332,10/08.0/2021,2000,g 14.6,4.0
# From MPEC 2021-TD0
179P/Jedicke,e,19.8979,115.5171,296.8410,5.933979,0.0681844,0.30601279,344.0615,10/08.0/2021,2000,g  2.5,8.0
# From MPC100284
180P/NEAT,e,16.8650,84.5699,94.7735,3.863741,0.1297753,0.35301618,276.6046,10/08.0/2021,2000,g 11.0,4.0
# From MPC 89012
181P/Shoemaker-Levy,e,17.4855,35.4067,336.2319,3.874344,0.1292429,0.70064229,348.0124,10/08.0/2021,2000,g 11.5,4.0
# From MPEC 2014-J10
182P/LONEOS,e,16.2252,72.4685,54.2071,2.951330,0.1943915,0.66319038,317.9647,10/08.0/2021,2000,g 18.0,4.0
# From MPEC 2021-S45
183P/Korlevic-Juric,e,18.8600,4.3081,167.1991,4.554385,0.1014050,0.13336950,142.3755,10/08.0/2021,2000,g 12.5,2.0
# From MPEC 2020-W26
184P/Lovas,e,4.5733,173.2478,186.4723,3.794457,0.1333459,0.55103847,46.2384,10/08.0/2021,2000,g 13.5,4.0
# From MPC109593
185P/Petriew,e,14.0095,214.1022,181.8739,3.098701,0.1806902,0.69938675,243.8100,10/08.0/2021,2000,g 15.0,4.0
# From MPEC 2021-S45
186P/Garradd,e,28.8545,326.6313,274.3007,4.906020,0.0907006,0.12171326,87.9840,10/08.0/2021,2000,g  7.5,4.0
# From MPEC 2020-SI8
187P/LINEAR,e,13.6342,109.9146,131.7685,4.568765,0.1009267,0.15203884,125.4025,10/08.0/2021,2000,g  9.0,4.0
# From MPC106349
188P/LINEAR-Mueller,e,10.5257,358.9649,26.5640,4.373423,0.1077635,0.41610817,182.4086,10/08.0/2021,2000,g 11.5,4.0
# From MPC106349
189P/NEAT,e,20.0689,281.7265,16.3040,2.946216,0.1948979,0.58874739,296.6938,10/08.0/2021,2000,g 19.0,4.0
# From MPEC 2020-K19
190P/Mueller,e,2.1743,335.5778,50.2884,4.233405,0.1131539,0.52163364,227.2360,10/08.0/2021,2000,g 13.0,4.0
# From MPEC 2021-TD0
191P/McNaught,e,8.8427,98.2331,284.0231,3.634823,0.1422261,0.38586900,28.7072,10/08.0/2021,2000,g 13.0,4.0
# From MPC 75724
192P/Shoemaker-Levy,e,24.5654,51.6165,312.9842,6.475074,0.0598187,0.77333406,302.6113,10/08.0/2021,2000,g 15.0,4.0
# From MPEC 2021-TD0
193P/LINEAR-NEAT,e,10.6885,335.1743,8.0982,3.578698,0.1455849,0.39418345,6.3680,10/08.0/2021,2000,g 14.0,4.0
# From MPC 98566
194P/LINEAR,e,11.7398,350.0192,131.4534,4.003398,0.1230441,0.58368992,256.0579,10/08.0/2021,2000,g 16.0,4.0
# From MPEC 2021-S45
195P/Hill,e,36.3328,243.1239,249.2774,6.504453,0.0594139,0.31347076,277.4787,10/08.0/2021,2000,g  8.5,4.0
# From MPC 92985
196P/Tichy,e,19.2924,24.1512,12.1779,3.803569,0.1328670,0.42859059,308.6155,10/08.0/2021,2000,g 13.5,4.0
# From MPC 94676
197P/LINEAR,e,25.5315,66.3778,188.7511,2.867789,0.2029472,0.62951106,273.6080,10/08.0/2021,2000,g 16.5,2.0
# From NK 1596
198P/ODAS,e,1.3387,358.2539,69.1792,3.598259,0.1443994,0.44355063,148.6070,10/08.0/2021,2000,g  9.0,4.0
# From MPC 75725
199P/Shoemaker,e,24.9319,92.3740,191.6971,5.891668,0.0689202,0.50594171,313.8922,10/08.0/2021,2000,g 10.0,4.0
# From MPEC 2021-F20
200P/Larsen,e,12.0994,234.7823,134.1273,4.942109,0.0897089,0.33265285,71.9143,10/08.0/2021,2000,g  9.0,4.0
# From MPC 93588
201P/LONEOS,e,5.7390,19.7470,41.5458,3.354047,0.1604539,0.63704961,21.5526,10/08.0/2021,2000,g 14.0,4.0
# From MPEC 2021-N06
202P/Scotti,e,2.0917,177.8525,277.1297,4.067740,0.1201363,0.26462665,244.8307,10/08.0/2021,2000,g 13.5,4.0
# From MPEC 2021-S45
203P/Korlevic,e,2.9728,290.3385,154.7917,4.670611,0.0976435,0.31521535,56.8613,10/08.0/2021,2000,g 14.5,2.0
# From MPC 98566
204P/LINEAR-NEAT,e,6.5981,108.5597,356.4100,3.588558,0.1449854,0.48818788,301.3529,10/08.0/2021,2000,g 14.0,4.0
# From MPC 98566
205P/Giacobini,e,15.3045,179.6050,154.2091,3.542844,0.1478006,0.56812049,345.6004,10/08.0/2021,2000,g 13.0,4.0
# From MPC 75725
206P/Barnard-Boattini,e,33.6333,202.3425,189.4828,3.488103,0.1512935,0.55139072,32.9043,10/08.0/2021,2000,g 19.0,4.0
# From MPC 75725
207P/NEAT,e,10.1874,198.3269,273.0057,3.871908,0.1293649,0.75908814,250.5748,10/08.0/2021,2000,g 16.0,4.0
# From MPEC 2020-W26
